{
  "type": "FeatureCollection",
  "features": [
    {
      "type": "Feature",
      "properties": {
        "norad_id": 34492,
        "name": "IRIDIUM 33 DEB",
        "group": "iridium-33-debris",
        "lat": -27.04106569323931,
        "lon": 157.28926568317303,
        "alt_km": 704.15770673106,
        "timestamp": "2025-12-10T14:53:37.473368+00:00",
        "meta_object_name": "IRIDIUM 33 DEB",
        "meta_object_id": "1997-051GH",
        "meta_epoch": "2025-12-09T22:53:18.084192",
        "meta_mean_motion": 14.25612959,
        "meta_eccentricity": 0.01893052,
        "meta_inclination": 86.4737,
        "meta_ra_of_asc_node": 335.7548,
        "meta_arg_of_pericenter": 247.2306,
        "meta_mean_anomaly": 140.5705,
        "meta_ephemeris_type": 0,
        "meta_classification_type": "U",
        "meta_norad_cat_id": 34492,
        "meta_element_set_no": 999,
        "meta_rev_at_epoch": 85019,
        "meta_bstar": 0.0073090591,
        "meta_mean_motion_dot": 0.00020944,
        "meta_mean_motion_ddot": 0,
        "tle_line1": "1 34492U 97051GH  25343.95368153  .00020944  00000+0  73091-2 0  9991",
        "tle_line2": "2 34492  86.4737 335.7548 0189305 247.2306 140.5705 14.25612959850193"
      },
      "geometry": {
        "type": "Point",
        "coordinates": [
          157.28926568317303,
          -27.04106569323931
        ]
      }
    },
    {
      "type": "Feature",
      "properties": {
        "norad_id": 34497,
        "name": "IRIDIUM 33 DEB",
        "group": "iridium-33-debris",
        "lat": 73.66959559950618,
        "lon": 66.14370277190447,
        "alt_km": 790.5142918732254,
        "timestamp": "2025-12-10T14:53:37.473388+00:00",
        "meta_object_name": "IRIDIUM 33 DEB",
        "meta_object_id": "1997-051GN",
        "meta_epoch": "2025-12-10T04:35:23.086752",
        "meta_mean_motion": 14.2744131,
        "meta_eccentricity": 0.00790645,
        "meta_inclination": 86.2779,
        "meta_ra_of_asc_node": 53.4903,
        "meta_arg_of_pericenter": 347.8917,
        "meta_mean_anomaly": 40.4515,
        "meta_ephemeris_type": 0,
        "meta_classification_type": "U",
        "meta_norad_cat_id": 34497,
        "meta_element_set_no": 999,
        "meta_rev_at_epoch": 86847,
        "meta_bstar": 0.00082191095,
        "meta_mean_motion_dot": 2.102e-05,
        "meta_mean_motion_ddot": 0,
        "tle_line1": "1 34497U 97051GN  25344.19123943  .00002102  00000+0  82191-3 0  9997",
        "tle_line2": "2 34497  86.2779  53.4903 0079064 347.8917  40.4515 14.27441310868476"
      },
      "geometry": {
        "type": "Point",
        "coordinates": [
          66.14370277190447,
          73.66959559950618
        ]
      }
    },
    {
      "type": "Feature",
      "properties": {
        "norad_id": 34508,
        "name": "IRIDIUM 33 DEB",
        "group": "iridium-33-debris",
        "lat": 32.5001901153004,
        "lon": -78.77641311588182,
        "alt_km": 722.0226898589608,
        "timestamp": "2025-12-10T14:53:37.473408+00:00",
        "meta_object_name": "IRIDIUM 33 DEB",
        "meta_object_id": "1997-051GZ",
        "meta_epoch": "2025-12-10T07:31:50.750976",
        "meta_mean_motion": 14.3839228,
        "meta_eccentricity": 0.00660308,
        "meta_inclination": 86.3701,
        "meta_ra_of_asc_node": 103.6714,
        "meta_arg_of_pericenter": 180.7074,
        "meta_mean_anomaly": 179.4042,
        "meta_ephemeris_type": 0,
        "meta_classification_type": "U",
        "meta_norad_cat_id": 34508,
        "meta_element_set_no": 999,
        "meta_rev_at_epoch": 87274,
        "meta_bstar": 0.0023946781,
        "meta_mean_motion_dot": 7.507e-05,
        "meta_mean_motion_ddot": 0,
        "tle_line1": "1 34508U 97051GZ  25344.31378184  .00007507  00000+0  23947-2 0  9990",
        "tle_line2": "2 34508  86.3701 103.6714 0066030 180.7074 179.4042 14.38392280872746"
      },
      "geometry": {
        "type": "Point",
        "coordinates": [
          -78.77641311588182,
          32.5001901153004
        ]
      }
    },
    {
      "type": "Feature",
      "properties": {
        "norad_id": 34521,
        "name": "IRIDIUM 33 DEB",
        "group": "iridium-33-debris",
        "lat": 44.30342183335849,
        "lon": -152.06150467151264,
        "alt_km": 678.8727714534762,
        "timestamp": "2025-12-10T14:53:37.473418+00:00",
        "meta_object_name": "IRIDIUM 33 DEB",
        "meta_object_id": "1997-051HN",
        "meta_epoch": "2025-12-10T04:25:46.195680",
        "meta_mean_motion": 14.63330037,
        "meta_eccentricity": 0.00013023,
        "meta_inclination": 86.38,
        "meta_ra_of_asc_node": 31.6727,
        "meta_arg_of_pericenter": 233.2821,
        "meta_mean_anomaly": 126.8271,
        "meta_ephemeris_type": 0,
        "meta_classification_type": "U",
        "meta_norad_cat_id": 34521,
        "meta_element_set_no": 999,
        "meta_rev_at_epoch": 88435,
        "meta_bstar": 0.0012474492,
        "meta_mean_motion_dot": 6.461e-05,
        "meta_mean_motion_ddot": 0,
        "tle_line1": "1 34521U 97051HN  25344.18456245  .00006461  00000+0  12474-2 0  9996",
        "tle_line2": "2 34521  86.3800  31.6727 0001302 233.2821 126.8271 14.63330037884350"
      },
      "geometry": {
        "type": "Point",
        "coordinates": [
          -152.06150467151264,
          44.30342183335849
        ]
      }
    },
    {
      "type": "Feature",
      "properties": {
        "norad_id": 34525,
        "name": "IRIDIUM 33 DEB",
        "group": "iridium-33-debris",
        "lat": 69.30092126822704,
        "lon": -141.9165834275334,
        "alt_km": 737.6080664688188,
        "timestamp": "2025-12-10T14:53:37.473427+00:00",
        "meta_object_name": "IRIDIUM 33 DEB",
        "meta_object_id": "1997-051HS",
        "meta_epoch": "2025-12-10T04:38:50.001792",
        "meta_mean_motion": 14.4289587,
        "meta_eccentricity": 0.00067045,
        "meta_inclination": 86.3727,
        "meta_ra_of_asc_node": 47.9303,
        "meta_arg_of_pericenter": 101.2221,
        "meta_mean_anomaly": 312.8304,
        "meta_ephemeris_type": 0,
        "meta_classification_type": "U",
        "meta_norad_cat_id": 34525,
        "meta_element_set_no": 999,
        "meta_rev_at_epoch": 88051,
        "meta_bstar": 0.00052559827,
        "meta_mean_motion_dot": 1.775e-05,
        "meta_mean_motion_ddot": 0,
        "tle_line1": "1 34525U 97051HS  25344.19363428  .00001775  00000+0  52560-3 0  9995",
        "tle_line2": "2 34525  86.3727  47.9303 0006704 101.2221 312.8304 14.42895870880517"
      },
      "geometry": {
        "type": "Point",
        "coordinates": [
          -141.9165834275334,
          69.30092126822704
        ]
      }
    },
    {
      "type": "Feature",
      "properties": {
        "norad_id": 34529,
        "name": "IRIDIUM 33 DEB",
        "group": "iridium-33-debris",
        "lat": 22.393847962751725,
        "lon": 37.816498992598305,
        "alt_km": 759.2693027029682,
        "timestamp": "2025-12-10T14:53:37.473437+00:00",
        "meta_object_name": "IRIDIUM 33 DEB",
        "meta_object_id": "1997-051HW",
        "meta_epoch": "2025-12-10T04:47:15.676800",
        "meta_mean_motion": 14.40612775,
        "meta_eccentricity": 0.00044781,
        "meta_inclination": 86.3643,
        "meta_ra_of_asc_node": 36.4947,
        "meta_arg_of_pericenter": 185.6472,
        "meta_mean_anomaly": 174.4677,
        "meta_ephemeris_type": 0,
        "meta_classification_type": "U",
        "meta_norad_cat_id": 34529,
        "meta_element_set_no": 999,
        "meta_rev_at_epoch": 88105,
        "meta_bstar": 0.00018242164,
        "meta_mean_motion_dot": 6.01e-06,
        "meta_mean_motion_ddot": 0,
        "tle_line1": "1 34529U 97051HW  25344.19948700  .00000601  00000+0  18242-3 0  9997",
        "tle_line2": "2 34529  86.3643  36.4947 0004478 185.6472 174.4677 14.40612775881059"
      },
      "geometry": {
        "type": "Point",
        "coordinates": [
          37.816498992598305,
          22.393847962751725
        ]
      }
    },
    {
      "type": "Feature",
      "properties": {
        "norad_id": 34538,
        "name": "IRIDIUM 33 DEB",
        "group": "iridium-33-debris",
        "lat": -23.999338821442922,
        "lon": -171.85475755787195,
        "alt_km": 770.9744531700971,
        "timestamp": "2025-12-10T14:53:37.473446+00:00",
        "meta_object_name": "IRIDIUM 33 DEB",
        "meta_object_id": "1997-051JF",
        "meta_epoch": "2025-12-10T02:34:36.380064",
        "meta_mean_motion": 14.42622589,
        "meta_eccentricity": 0.00330991,
        "meta_inclination": 86.2772,
        "meta_ra_of_asc_node": 6.7088,
        "meta_arg_of_pericenter": 336.9894,
        "meta_mean_anomaly": 83.6155,
        "meta_ephemeris_type": 0,
        "meta_classification_type": "U",
        "meta_norad_cat_id": 34538,
        "meta_element_set_no": 999,
        "meta_rev_at_epoch": 87718,
        "meta_bstar": 0.001246863,
        "meta_mean_motion_dot": 4.187e-05,
        "meta_mean_motion_ddot": 0,
        "tle_line1": "1 34538U 97051JF  25344.10736551  .00004187  00000+0  12469-2 0  9994",
        "tle_line2": "2 34538  86.2772   6.7088 0033099 336.9894  83.6155 14.42622589877184"
      },
      "geometry": {
        "type": "Point",
        "coordinates": [
          -171.85475755787195,
          -23.999338821442922
        ]
      }
    }
  ]
}